#aV2008  5 16  0  0   .00000000      96 DD+AD WGS84 FIT  NGA
## 1479 432000.00000000   900.00000000 54602  .0000000000000
+   31     2  3  4  5  6  7  8  9 10 11 12 13 14 15 16 17 18
+         19 20 21 22 23 24 25 26 27 28 29 30 31 32  0  0  0
+          0  0  0  0  0  0  0  0  0  0  0  0  0  0  0  0  0
+          0  0  0  0  0  0  0  0  0  0  0  0  0  0  0  0  0
+          0  0  0  0  0  0  0  0  0  0  0  0  0  0  0  0  0
++         0  0  0  0  0  0  0  0  0  0  0  0  0  0  0  0  0
++         0  0  0  0  0  0  0  0  0  0  0  0  0  0  0  0  0
++         0  0  0  0  0  0  0  0  0  0  0  0  0  0  0  0  0
++         0  0  0  0  0  0  0  0  0  0  0  0  0  0  0  0  0
++         0  0  0  0  0  0  0  0  0  0  0  0  0  0  0  0  0
%c cc cc ccc ccc cccc cccc cccc cccc ccccc ccccc ccccc ccccc
%c cc cc ccc ccc cccc cccc cccc cccc ccccc ccccc ccccc ccccc
%f  0.0000000  0.000000000  0.00000000000  0.000000000000000
%f  0.0000000  0.000000000  0.00000000000  0.000000000000000
%i    0    0    0    0      0      0      0      0         0
%i    0    0    0    0      0      0      0      0         0
/*      NGA, ST. LOUIS,MO.                                  
/*   EPHEMERIS COMPUTED FROM  3 DAYS OF DATA                
/* CCCCCCCCCCCCCCCCCCCCCCCCCCCCCCCCCCCCCCCCCCCCCCCCCCCCCCCCC
/* CCCCCCCCCCCCCCCCCCCCCCCCCCCCCCCCCCCCCCCCCCCCCCCCCCCCCCCCC
*  2008  5 16  4 45   .00000000                                                 
P  2 -15262.178959  -3617.769572 -21582.622224    203.194846                    
V  2   8096.416350 -25869.276038  -1750.040183       .029807                    
P  3  22134.041348   7178.702878  12863.884618    228.737458                    
V  3  10312.392154  13456.658600 -24410.444562       .053523                    
P  4  -9925.859799 -14851.216508 -19642.888219    -68.379311                    
V  4   9625.309396 -23018.363369  12961.594621      -.085414                    
P  5 -16265.580863  15623.894180 -14180.106720    773.601098                    
V  5 -17661.022313   2579.082802  23691.900189       .091727                    
P  6  20833.062278  15454.368082   5890.562854    128.175621                    
V  6   2488.840833   7697.640849 -29935.187815       .090859                    
P  7   7192.897484 -25459.332009   1870.431959    -42.169290                    
V  7   3440.606354  -1385.986372 -31718.332712       .093050                    
P  8  -1324.938267 -22167.424913  14118.920046   -153.181248                    
V  8   8519.412852 -16221.576747 -24978.770741      -.016785                    
P  9 -13928.469520  18842.033459  11720.004841    124.662748                    
V  9   2231.737547 -15933.153727  27001.081594       .017737                    
P 10 -26018.814202    149.646466  -6276.177358     -1.571568                    
V 10   7198.628919  -3625.106566 -30279.224961      -.002628                    
P 11  11450.029285 -21264.879773  10529.496855     25.581465                    
V 11   2656.524021  14358.078441  26067.676375      -.002576                    
P 12 -20983.743132  11918.596788 -10892.693943   -359.140333                    
V 12 -14210.975915    330.376708  27596.610981       .001096                    
P 13  -1876.824885 -20221.752594 -17248.576428    255.502393                    
V 13  14316.990552  16191.081647 -20659.033480       .017319                    
P 14  15006.929963  21707.952438   3540.788810   -266.287899                    
V 14  -4163.214366  -2195.442839  31892.278852       .041766                    
P 15 -17501.340653   1551.012359  19940.922836   -111.730364                    
V 15 -16078.125109 -19548.744477 -12593.826491      -.056037                    
P 16  24196.841605   3081.984701 -10675.381268    124.985969                    
V 16 -12971.572041   4621.742731 -27675.288313      -.013816                    
P 17 -15369.453286 -21509.136006   3399.282422     39.071354                    
V 17   4810.525833   1464.726349  31231.302740      -.002531                    
P 18  -3491.603692  15925.780527  21085.613282   -177.547343                    
V 18 -26272.231798   3423.446171  -7352.322906       .037587                    
P 19  17159.459798  -1188.411882  20372.938552     29.910018                    
V 19  14846.750928  20921.160742 -11152.040867       .009032                    
P 20  19286.953158 -13418.898803 -12460.943159    114.266783                    
V 20  15886.508211   -780.829524  25714.446409      -.008146                    
P 21  -3223.507946  24987.973519   7527.178503     64.178058                    
V 21  -6848.791986   7630.791074 -29575.068822      -.011067                    
P 22  11787.186593  12888.045233  20176.055250    211.157972                    
V 22 -24837.248737   5068.617933  11306.267589       .001224                    
P 23   9466.066650 -11860.034495 -21851.963912    353.924003                    
V 23  18428.503678  20502.893205  -3391.895061       .022313                    
P 24 -13004.071915  22672.941768  -5328.261041     94.215129                    
V 24    -18.699643  -7457.627914 -30446.070234       .028650                    
P 25   9310.422007 -24376.585527  -5085.497238   -154.270301                    
V 25    887.216295   7273.261771 -30854.435055      -.264898                    
P 26 -18590.746532  -4131.004519  18263.115519    254.174893                    
V 26 -14344.728935 -19167.327612 -17921.796950       .080274                    
P 27   3678.193561 -25913.319454   4684.731843    188.721646                    
V 27   3786.861831  -4290.730454 -31311.440678       .026973                    
P 28  -9884.455294 -13260.084622  21233.521814    -19.052045                    
V 28  25522.255073  -4990.042425   8598.700423      -.002670                    
P 29  -1218.024926  18775.282442 -18637.680283    -43.146226                    
V 29 -16578.680403 -17293.767508 -16204.579828       .002349                    
P 30  -9660.745317  16314.830683 -18898.955858     76.633092                    
V 30 -23077.393212   4017.343923  15645.072453       .016952                    
P 31  10325.674895  13283.378630 -20320.658761    -20.021958                    
V 31  -9244.588376  24611.342455  11383.819380      -.012506                    
P 32  26344.299060  -1098.392208   2812.776157    285.457790                    
V 32  -2739.058141   2976.976591  31784.883325       .053866                    
EOF
